{"type": "FeatureCollection", "features": [ {"type": "Feature", "properties": {"norad_id": 67019, "name": "STARLINK-35688", "group": "last-30-days", "lat": 37.82848965275747, "lon": 103.7363308626325, "alt_km": 297.1394793305244, "timestamp": "2025-12-20T20:38:43.175439+00:00", "meta": {"OBJECT_NAME": "STARLINK-35688", "OBJECT_ID": "2025-293S", "EPOCH": "2025-12-20T14:00:03.000384", "MEAN_MOTION": 15.91928212, "ECCENTRICITY": 0.00039814, "INCLINATION": 69.993, "RA_OF_ASC_NODE": 300.975, "ARG_OF_PERICENTER": 267.4173, "MEAN_ANOMALY": 86.0015, "EPHEMERIS_TYPE": 0, "CLASSIFICATION_TYPE": "U", "NORAD_CAT_ID": 67019, "ELEMENT_SET_NO": 999, "REV_AT_EPOCH": 157, "BSTAR": -0.0040283381, "MEAN_MOTION_DOT": -0.01328997, "MEAN_MOTION_DDOT": 0.00051057135}, "tle": {"line1": "1 67019U 25293S   25354.58336806 -.01328997  51057-3 -40283-2 0  9993", "line2": "2 67019  69.9930 300.9750 0003981 267.4173  86.0015 15.91928212  1579"}}, "geometry": {"type": "Point", "coordinates": [103.7363308626325, 37.82848965275747]}}, {"type": "Feature", "properties": {"norad_id": 67020, "name": "STARLINK-36172", "group": "last-30-days", "lat": 35.20065803401261, "lon": 105.2733041241523, "alt_km": 297.48715319613984, "timestamp": "2025-12-20T20:38:43.175451+00:00", "meta": {"OBJECT_NAME": "STARLINK-36172", "OBJECT_ID": "2025-293T", "EPOCH": "2025-12-20T14:00:03.000384", "MEAN_MOTION": 15.91977561, "ECCENTRICITY": 0.0004038, "INCLINATION": 69.9929, "RA_OF_ASC_NODE": 300.9718, "ARG_OF_PERICENTER": 270.8051, "MEAN_ANOMALY": 85.4689, "EPHEMERIS_TYPE": 0, "CLASSIFICATION_TYPE": "U", "NORAD_CAT_ID": 67020, "ELEMENT_SET_NO": 999, "REV_AT_EPOCH": 149, "BSTAR": -0.0040570936, "MEAN_MOTION_DOT": -0.01341789, "MEAN_MOTION_DDOT": 0.00051992922}, "tle": {"line1": "1 67020U 25293T   25354.58336806 -.01341789  51993-3 -40571-2 0  9998", "line2": "2 67020  69.9929 300.9718 0004038 270.8051  85.4689 15.91977561  1492"}}, "geometry": {"type": "Point", "coordinates": [105.2733041241523, 35.20065803401261]}}, {"type": "Feature", "properties": {"norad_id": 67021, "name": "STARLINK-36184", "group": "last-30-days", "lat": 32.78847833931383, "lon": 106.58986642586645, "alt_km": 297.5920768283959, "timestamp": "2025-12-20T20:38:43.175462+00:00", "meta": {"OBJECT_NAME": "STARLINK-36184", "OBJECT_ID": "2025-293U", "EPOCH": "2025-12-20T14:00:03.000384", "MEAN_MOTION": 15.92021623, "ECCENTRICITY": 0.00039969, "INCLINATION": 69.9932, "RA_OF_ASC_NODE": 300.9685, "ARG_OF_PERICENTER": 269.0506, "MEAN_ANOMALY": 89.8301, "EPHEMERIS_TYPE": 0, "CLASSIFICATION_TYPE": "U", "NORAD_CAT_ID": 67021, "ELEMENT_SET_NO": 999, "REV_AT_EPOCH": 149, "BSTAR": -0.0040896354, "MEAN_MOTION_DOT": -0.01355464, "MEAN_MOTION_DDOT": 0.00052997933}, "tle": {"line1": "1 67021U 25293U   25354.58336806 -.01355464  52998-3 -40896-2 0  9990", "line2": "2 67021  69.9932 300.9685 0003996 269.0506  89.8301 15.92021623  1496"}}, "geometry": {"type": "Point", "coordinates": [106.58986642586645, 32.78847833931383]}}, {"type": "Feature", "properties": {"norad_id": 67022, "name": "STARLINK-36209", "group": "last-30-days", "lat": 29.950566022310586, "lon": 108.0416922258172, "alt_km": 297.8827777854149, "timestamp": "2025-12-20T20:38:43.175474+00:00", "meta": {"OBJECT_NAME": "STARLINK-36209", "OBJECT_ID": "2025-293V", "EPOCH": "2025-12-20T14:00:03.000384", "MEAN_MOTION": 15.92062869, "ECCENTRICITY": 0.00040584, "INCLINATION": 69.993, "RA_OF_ASC_NODE": 300.965, "ARG_OF_PERICENTER": 269.8912, "MEAN_ANOMALY": 92.0452, "EPHEMERIS_TYPE": 0, "CLASSIFICATION_TYPE": "U", "NORAD_CAT_ID": 67022, "ELEMENT_SET_NO": 999, "REV_AT_EPOCH": 149, "BSTAR": -0.0040942506, "MEAN_MOTION_DOT": -0.01359869, "MEAN_MOTION_DDOT": 0.00053338035}, "tle": {"line1": "1 67022U 25293V   25354.58336806 -.01359869  53338-3 -40943-2 0  9996", "line2": "2 67022  69.9930 300.9650 0004058 269.8912  92.0452 15.92062869  1496"}}, "geometry": {"type": "Point", "coordinates": [108.0416922258172, 29.950566022310586]}}, {"type": "Feature", "properties": {"norad_id": 67023, "name": "STARLINK-36191", "group": "last-30-days", "lat": 27.615160563167688, "lon": 109.16900805317455, "alt_km": 298.13219712880255, "timestamp": "2025-12-20T20:38:43.175486+00:00", "meta": {"OBJECT_NAME": "STARLINK-36191", "OBJECT_ID": "2025-293W", "EPOCH": "2025-12-20T14:00:03.000384", "MEAN_MOTION": 15.92103209, "ECCENTRICITY": 0.00041174, "INCLINATION": 69.9929, "RA_OF_ASC_NODE": 300.9614, "ARG_OF_PERICENTER": 271.2327, "MEAN_ANOMALY": 93.1996, "EPHEMERIS_TYPE": 0, "CLASSIFICATION_TYPE": "U", "NORAD_CAT_ID": 67023, "ELEMENT_SET_NO": 999, "REV_AT_EPOCH": 138, "BSTAR": -0.0040973101, "MEAN_MOTION_DOT": -0.01363712, "MEAN_MOTION_DDOT": 0.00053637981}, "tle": {"line1": "1 67023U 25293W   25354.58336806 -.01363712  53638-3 -40973-2 0  9995", "line2": "2 67023  69.9929 300.9614 0004117 271.2327  93.1996 15.92103209  1385"}}, "geometry": {"type": "Point", "coordinates": [109.16900805317455, 27.615160563167688]}}, {"type": "Feature", "properties": {"norad_id": 67024, "name": "STARLINK-36192", "group": "last-30-days", "lat": 24.95599389147795, "lon": 110.39189961400086, "alt_km": 298.19659904904165, "timestamp": "2025-12-20T20:38:43.175496+00:00", "meta": {"OBJECT_NAME": "STARLINK-36192", "OBJECT_ID": "2025-293X", "EPOCH": "2025-12-20T14:00:03.000384", "MEAN_MOTION": 15.92149364, "ECCENTRICITY": 0.0004027, "INCLINATION": 69.9932, "RA_OF_ASC_NODE": 300.9584, "ARG_OF_PERICENTER": 268.653, "MEAN_ANOMALY": 98.6115, "EPHEMERIS_TYPE": 0, "CLASSIFICATION_TYPE": "U", "NORAD_CAT_ID": 67024, "ELEMENT_SET_NO": 999, "REV_AT_EPOCH": 149, "BSTAR": -0.004120669, "MEAN_MOTION_DOT": -0.01374595, "MEAN_MOTION_DDOT": 0.0005445547}, "tle": {"line1": "1 67024U 25293X   25354.58336806 -.01374595  54455-3 -41207-2 0  9996", "line2": "2 67024  69.9932 300.9584 0004027 268.6530  98.6115 15.92149364  1499"}}, "geometry": {"type": "Point", "coordinates": [110.39189961400086, 24.95599389147795]}}, {"type": "Feature", "properties": {"norad_id": 67025, "name": "STARLINK-36178", "group": "last-30-days", "lat": 22.792991880393085, "lon": 111.34419890616061, "alt_km": 298.35947806370586, "timestamp": "2025-12-20T20:38:43.175512+00:00", "meta": {"OBJECT_NAME": "STARLINK-36178", "OBJECT_ID": "2025-293Y", "EPOCH": "2025-12-20T14:00:03.000384", "MEAN_MOTION": 15.92190939, "ECCENTRICITY": 0.00040352, "INCLINATION": 69.9932, "RA_OF_ASC_NODE": 300.9555, "ARG_OF_PERICENTER": 268.8889, "MEAN_ANOMALY": 100.6676, "EPHEMERIS_TYPE": 0, "CLASSIFICATION_TYPE": "U", "NORAD_CAT_ID": 67025, "ELEMENT_SET_NO": 999, "REV_AT_EPOCH": 149, "BSTAR": -0.0041388933, "MEAN_MOTION_DOT": -0.01383552, "MEAN_MOTION_DDOT": 0.0005513481}, "tle": {"line1": "1 67025U 25293Y   25354.58336806 -.01383552  55135-3 -41389-2 0  9997", "line2": "2 67025  69.9932 300.9555 0004035 268.8889 100.6676 15.92190939  1496"}}, "geometry": {"type": "Point", "coordinates": [111.34419890616061, 22.792991880393085]}}, {"type": "Feature", "properties": {"norad_id": 67026, "name": "STARLINK-36176", "group": "last-30-days", "lat": 17.99391613096924, "lon": 113.34875063804681, "alt_km": 298.7658788751505, "timestamp": "2025-12-20T20:38:43.175522+00:00", "meta": {"OBJECT_NAME": "STARLINK-36176", "OBJECT_ID": "2025-293Z", "EPOCH": "2025-12-20T14:00:03.000384", "MEAN_MOTION": 15.92272329, "ECCENTRICITY": 0.00040279, "INCLINATION": 69.9928, "RA_OF_ASC_NODE": 300.9496, "ARG_OF_PERICENTER": 270.5408, "MEAN_ANOMALY": 104.0886, "EPHEMERIS_TYPE": 0, "CLASSIFICATION_TYPE": "U", "NORAD_CAT_ID": 67026, "ELEMENT_SET_NO": 999, "REV_AT_EPOCH": 149, "BSTAR": -0.0041486063, "MEAN_MOTION_DOT": -0.01392546, "MEAN_MOTION_DDOT": 0.00055843221}, "tle": {"line1": "1 67026U 25293Z   25354.58336806 -.01392546  55843-3 -41486-2 0  9995", "line2": "2 67026  69.9928 300.9496 0004027 270.5408 104.0886 15.92272329  1499"}}, "geometry": {"type": "Point", "coordinates": [113.34875063804681, 17.99391613096924]}}, {"type": "Feature", "properties": {"norad_id": 67027, "name": "STARLINK-36171", "group": "last-30-days", "lat": 20.034677932109478, "lon": 112.51327519255203, "alt_km": 298.6008106501931, "timestamp": "2025-12-20T20:38:43.175533+00:00", "meta": {"OBJECT_NAME": "STARLINK-36171", "OBJECT_ID": "2025-293AA", "EPOCH": "2025-12-20T14:00:03.000384", "MEAN_MOTION": 15.92265259, "ECCENTRICITY": 0.00040383, "INCLINATION": 69.9928, "RA_OF_ASC_NODE": 300.9528, "ARG_OF_PERICENTER": 270.3798, "MEAN_ANOMALY": 102.0783, "EPHEMERIS_TYPE": 0, "CLASSIFICATION_TYPE": "U", "NORAD_CAT_ID": 67027, "ELEMENT_SET_NO": 999, "REV_AT_EPOCH": 149, "BSTAR": -0.0042557988, "MEAN_MOTION_DOT": -0.01427627, "MEAN_MOTION_DDOT": 0.0005846325}, "tle": {"line1": "1 67027U 25293AA  25354.58336806 -.01427627  58463-3 -42558-2 0  9997", "line2": "2 67027  69.9928 300.9528 0004038 270.3798 102.0783 15.92265259  1496"}}, "geometry": {"type": "Point", "coordinates": [112.51327519255203, 20.034677932109478]}}, {"type": "Feature", "properties": {"norad_id": 67028, "name": "STARLINK-36132", "group": "last-30-days", "lat": 13.125335753682602, "lon": 115.26561937146819, "alt_km": 299.06512334266426, "timestamp": "2025-12-20T20:38:43.175544+00:00", "meta": {"OBJECT_NAME": "STARLINK-36132", "OBJECT_ID": "2025-293AB", "EPOCH": "2025-12-20T14:00:03.000384", "MEAN_MOTION": 15.92356492, "ECCENTRICITY": 0.00040912, "INCLINATION": 69.9932, "RA_OF_ASC_NODE": 300.9434, "ARG_OF_PERICENTER": 270.0886, "MEAN_ANOMALY": 109.6663, "EPHEMERIS_TYPE": 0, "CLASSIFICATION_TYPE": "U", "NORAD_CAT_ID": 67028, "ELEMENT_SET_NO": 999, "REV_AT_EPOCH": 149, "BSTAR": -0.0041580562, "MEAN_MOTION_DOT": -0.01401743, "MEAN_MOTION_DDOT": 0.00056573178}, "tle": {"line1": "1 67028U 25293AB  25354.58336806 -.01401743  56573-3 -41581-2 0  9994", "line2": "2 67028  69.9932 300.9434 0004091 270.0886 109.6663 15.92356492  1492"}}, "geometry": {"type": "Point", "coordinates": [115.26561937146819, 13.125335753682602]}}]}